{
    "links": {
        "self": "http://www.neowsapp.com/rest/v1/neo/3623947?api_key=iIulBulltgU6a56xZRHN4H3l9WmuAYTsLGpBGhQ2"
    },
    "id": "3623947",
    "neo_reference_id": "3623947",
    "name": "(2013 AN60)",
    "designation": "2013 AN60",
    "nasa_jpl_url": "http://ssd.jpl.nasa.gov/sbdb.cgi?sstr=3623947",
    "absolute_magnitude_h": 21.9,
    "estimated_diameter": {
        "kilometers": {
            "estimated_diameter_min": 0.1108038821,
            "estimated_diameter_max": 0.2477650126
        },
        "meters": {
            "estimated_diameter_min": 110.8038821264,
            "estimated_diameter_max": 247.7650126055
        },
        "miles": {
            "estimated_diameter_min": 0.068850319,
            "estimated_diameter_max": 0.1539539936
        },
        "feet": {
            "estimated_diameter_min": 363.5298086356,
            "estimated_diameter_max": 812.8773639568
        }
    },
    "is_potentially_hazardous_asteroid": true,
    "close_approach_data": [
        {
            "close_approach_date": "2007-07-03",
            "close_approach_date_full": "2007-Jul-03 05:17",
            "epoch_date_close_approach": 1183439820000,
            "relative_velocity": {
                "kilometers_per_second": "27.8571787081",
                "kilometers_per_hour": "100285.8433490866",
                "miles_per_hour": "62313.7230521033"
            },
            "miss_distance": {
                "astronomical": "0.4654898644",
                "lunar": "181.0755572516",
                "kilometers": "69636292.220828828",
                "miles": "43269985.5301327064"
            },
            "orbiting_body": "Earth"
        },
        {
            "close_approach_date": "2012-12-12",
            "close_approach_date_full": "2012-Dec-12 14:21",
            "epoch_date_close_approach": 1355322060000,
            "relative_velocity": {
                "kilometers_per_second": "16.731297127",
                "kilometers_per_hour": "60232.6696572763",
                "miles_per_hour": "37426.2385434337"
            },
            "miss_distance": {
                "astronomical": "0.0661053722",
                "lunar": "25.7149897858",
                "kilometers": "9889222.876677214",
                "miles": "6144878.1537809932"
            },
            "orbiting_body": "Earth"
        },
        {
            "close_approach_date": "2020-07-09",
            "close_approach_date_full": "2020-Jul-09 17:03",
            "epoch_date_close_approach": 1594314180000,
            "relative_velocity": {
                "kilometers_per_second": "23.8331448417",
                "kilometers_per_hour": "85799.3214300462",
                "miles_per_hour": "53312.3616963529"
            },
            "miss_distance": {
                "astronomical": "0.3314194475",
                "lunar": "128.9221650775",
                "kilometers": "49579643.422576825",
                "miles": "30807361.866437185"
            },
            "orbiting_body": "Earth"
        },
        {
            "close_approach_date": "2106-07-03",
            "close_approach_date_full": "2106-Jul-03 11:13",
            "epoch_date_close_approach": 4307598780000,
            "relative_velocity": {
                "kilometers_per_second": "28.7491049864",
                "kilometers_per_hour": "103496.777950869",
                "miles_per_hour": "64308.8729439719"
            },
            "miss_distance": {
                "astronomical": "0.4959501496",
                "lunar": "192.9246081944",
                "kilometers": "74193086.006341352",
                "miles": "46101445.8918885776"
            },
            "orbiting_body": "Earth"
        },
        {
            "close_approach_date": "2109-04-06",
            "close_approach_date_full": "2109-Apr-06 04:38",
            "epoch_date_close_approach": 4394666280000,
            "relative_velocity": {
                "kilometers_per_second": "10.7982561927",
                "kilometers_per_hour": "38873.7222938878",
                "miles_per_hour": "24154.6192775549"
            },
            "miss_distance": {
                "astronomical": "0.120597917",
                "lunar": "46.912589713",
                "kilometers": "18041191.50963679",
                "miles": "11210276.576656102"
            },
            "orbiting_body": "Venus"
        }
    ],
    "orbital_data": {
        "orbit_id": "10",
        "orbit_determination_date": "2017-04-06 08:47:18",
        "first_observation_date": "2013-01-08",
        "last_observation_date": "2013-02-09",
        "data_arc_in_days": 32,
        "observations_used": 45,
        "orbit_uncertainty": "7",
        "minimum_orbit_intersection": ".0154524",
        "jupiter_tisserand_invariant": "3.722",
        "epoch_osculation": "2459000.5",
        "eccentricity": ".5820382471434282",
        "semi_major_axis": "1.893550634236",
        "inclination": "6.947060211062174",
        "ascending_node_longitude": "248.5644693322823",
        "orbital_period": "951.7301137741998",
        "perihelion_distance": ".791431742207952",
        "perihelion_argument": "125.6233251845958",
        "aphelion_distance": "2.995669526264049",
        "perihelion_time": "2459087.373178750951",
        "mean_anomaly": "327.1394821938332",
        "mean_motion": ".3782584944931257",
        "equinox": "J2000",
        "orbit_class": {
            "orbit_class_type": "APO",
            "orbit_class_description": "Near-Earth asteroid orbits which cross the Earth’s orbit similar to that of 1862 Apollo",
            "orbit_class_range": "a (semi-major axis) > 1.0 AU; q (perihelion) < 1.017 AU"
        }
    },
    "is_sentry_object": false
}